[{"OBJECT_NAME":"ONEWEB-0102","OBJECT_ID":"2020-100A","EPOCH":"2026-03-09T20:57:22.471200","MEAN_MOTION":13.12443626,"ECCENTRICITY":0.0001855,"INCLINATION":87.8996,"RA_OF_ASC_NODE":10.3932,"ARG_OF_PERICENTER":87.529,"MEAN_ANOMALY":272.6051,"EPHEMERIS_TYPE":0,"CLASSIFICATION_TYPE":"U","NORAD_CAT_ID":47258,"ELEMENT_SET_NO":999,"REV_AT_EPOCH":25170,"BSTAR":-0.00065316,"MEAN_MOTION_DOT":-2.22e-6,"MEAN_MOTION_DDOT":0},{"OBJECT_NAME":"ONEWEB-0109","OBJECT_ID":"2020-100B","EPOCH":"2026-03-09T21:09:34.717248","MEAN_MOTION":13.12443177,"ECCENTRICITY":0.0001945,"INCLINATION":87.9006,"RA_OF_ASC_NODE":10.3656,"ARG_OF_PERICENTER":80.9717,"MEAN_ANOMALY":279.1632,"EPHEMERIS_TYPE":0,"CLASSIFICATION_TYPE":"U","NORAD_CAT_ID":47259,"ELEMENT_SET_NO":999,"REV_AT_EPOCH":25153,"BSTAR":0.00029605,"MEAN_MOTION_DOT":1.19e-6,"MEAN_MOTION_DDOT":0},{"OBJECT_NAME":"ONEWEB-0110","OBJECT_ID":"2020-100C","EPOCH":"2026-03-09T19:58:48.959040","MEAN_MOTION":13.12444072,"ECCENTRICITY":0.0001752,"INCLINATION":87.9004,"RA_OF_ASC_NODE":10.3602,"ARG_OF_PERICENTER":88.1833,"MEAN_ANOMALY":271.9496,"EPHEMERIS_TYPE":0,"CLASSIFICATION_TYPE":"U","NORAD_CAT_ID":47260,"ELEMENT_SET_NO":999,"REV_AT_EPOCH":25169,"BSTAR":0.0010112,"MEAN_MOTION_DOT":3.77e-6,"MEAN_MOTION_DDOT":0},{"OBJECT_NAME":"ONEWEB-0111","OBJECT_ID":"2020-100D","EPOCH":"2026-03-09T20:42:44.005248","MEAN_MOTION":13.12443027,"ECCENTRICITY":0.0001692,"INCLINATION":87.9004,"RA_OF_ASC_NODE":10.3725,"ARG_OF_PERICENTER":81.0721,"MEAN_ANOMALY":279.0599,"EPHEMERIS_TYPE":0,"CLASSIFICATION_TYPE":"U","NORAD_CAT_ID":47261,"ELEMENT_SET_NO":999,"REV_AT_EPOCH":25153,"BSTAR":-0.0010279,"MEAN_MOTION_DOT":-3.57e-6,"MEAN_MOTION_DDOT":0},{"OBJECT_NAME":"ONEWEB-0114","OBJECT_ID":"2020-100E","EPOCH":"2026-03-09T19:36:52.630848","MEAN_MOTION":13.1244296,"ECCENTRICITY":0.000202,"INCLINATION":87.9007,"RA_OF_ASC_NODE":10.377,"ARG_OF_PERICENTER":74.1238,"MEAN_ANOMALY":286.0113,"EPHEMERIS_TYPE":0,"CLASSIFICATION_TYPE":"U","NORAD_CAT_ID":47262,"ELEMENT_SET_NO":999,"REV_AT_EPOCH":25148,"BSTAR":0.0012551,"MEAN_MOTION_DOT":4.64e-6,"MEAN_MOTION_DDOT":0},{"OBJECT_NAME":"ONEWEB-0117","OBJECT_ID":"2020-100F","EPOCH":"2026-03-09T21:14:27.076704","MEAN_MOTION":13.12443112,"ECCENTRICITY":0.0001813,"INCLINATION":87.9004,"RA_OF_ASC_NODE":10.3579,"ARG_OF_PERICENTER":80.3179,"MEAN_ANOMALY":279.8154,"EPHEMERIS_TYPE":0,"CLASSIFICATION_TYPE":"U","NORAD_CAT_ID":47263,"ELEMENT_SET_NO":999,"REV_AT_EPOCH":25150,"BSTAR":0.0006825,"MEAN_MOTION_DOT":2.58e-6,"MEAN_MOTION_DDOT":0},{"OBJECT_NAME":"ONEWEB-0118","OBJECT_ID":"2020-100G","EPOCH":"2026-03-09T20:13:27.737760","MEAN_MOTION":13.12441002,"ECCENTRICITY":0.0001917,"INCLINATION":87.9003,"RA_OF_ASC_NODE":10.3687,"ARG_OF_PERICENTER":69.0195,"MEAN_ANOMALY":291.1138,"EPHEMERIS_TYPE":0,"CLASSIFICATION_TYPE":"U","NORAD_CAT_ID":47264,"ELEMENT_SET_NO":999,"REV_AT_EPOCH":25169,"BSTAR":4.0021e-5,"MEAN_MOTION_DOT":2.7e-7,"MEAN_MOTION_DDOT":0},{"OBJECT_NAME":"ONEWEB-0119","OBJECT_ID":"2020-100H","EPOCH":"2026-03-09T20:50:03.312096","MEAN_MOTION":13.12443692,"ECCENTRICITY":0.0001833,"INCLINATION":87.8993,"RA_OF_ASC_NODE":10.3896,"ARG_OF_PERICENTER":79.5149,"MEAN_ANOMALY":280.6186,"EPHEMERIS_TYPE":0,"CLASSIFICATION_TYPE":"U","NORAD_CAT_ID":47265,"ELEMENT_SET_NO":999,"REV_AT_EPOCH":25167,"BSTAR":-0.00083717,"MEAN_MOTION_DOT":-2.88e-6,"MEAN_MOTION_DDOT":0},{"OBJECT_NAME":"ONEWEB-0120","OBJECT_ID":"2020-100J","EPOCH":"2026-03-09T19:34:37.866720","MEAN_MOTION":13.12443317,"ECCENTRICITY":0.0001915,"INCLINATION":87.8994,"RA_OF_ASC_NODE":10.4003,"ARG_OF_PERICENTER":77.9111,"MEAN_ANOMALY":282.2232,"EPHEMERIS_TYPE":0,"CLASSIFICATION_TYPE":"U","NORAD_CAT_ID":47266,"ELEMENT_SET_NO":999,"REV_AT_EPOCH":25169,"BSTAR":0.001036,"MEAN_MOTION_DOT":3.85e-6,"MEAN_MOTION_DDOT":0},{"OBJECT_NAME":"ONEWEB-0121","OBJECT_ID":"2020-100K","EPOCH":"2026-03-09T21:07:07.903776","MEAN_MOTION":13.12443616,"ECCENTRICITY":0.0001717,"INCLINATION":87.9005,"RA_OF_ASC_NODE":10.3639,"ARG_OF_PERICENTER":85.1822,"MEAN_ANOMALY":274.9502,"EPHEMERIS_TYPE":0,"CLASSIFICATION_TYPE":"U","NORAD_CAT_ID":47267,"ELEMENT_SET_NO":999,"REV_AT_EPOCH":25161,"BSTAR":9.9245e-5,"MEAN_MOTION_DOT":4.8e-7,"MEAN_MOTION_DDOT":0},{"OBJECT_NAME":"ONEWEB-0122","OBJECT_ID":"2020-100L","EPOCH":"2026-03-09T20:58:34.814784","MEAN_MOTION":13.12446756,"ECCENTRICITY":0.0001935,"INCLINATION":87.9007,"RA_OF_ASC_NODE":10.3679,"ARG_OF_PERICENTER":82.5867,"MEAN_ANOMALY":277.5481,"EPHEMERIS_TYPE":0,"CLASSIFICATION_TYPE":"U","NORAD_CAT_ID":47268,"ELEMENT_SET_NO":999,"REV_AT_EPOCH":25152,"BSTAR":-0.00039916,"MEAN_MOTION_DOT":-1.31e-6,"MEAN_MOTION_DDOT":0},{"OBJECT_NAME":"ONEWEB-0123","OBJECT_ID":"2020-100M","EPOCH":"2026-03-09T20:52:29.482752","MEAN_MOTION":13.12443568,"ECCENTRICITY":0.0001781,"INCLINATION":87.8994,"RA_OF_ASC_NODE":10.3879,"ARG_OF_PERICENTER":76.8654,"MEAN_ANOMALY":283.2673,"EPHEMERIS_TYPE":0,"CLASSIFICATION_TYPE":"U","NORAD_CAT_ID":47269,"ELEMENT_SET_NO":999,"REV_AT_EPOCH":25166,"BSTAR":-0.00080319,"MEAN_MOTION_DOT":-2.76e-6,"MEAN_MOTION_DDOT":0},{"OBJECT_NAME":"ONEWEB-0124","OBJECT_ID":"2020-100N","EPOCH":"2026-03-09T20:37:51.000384","MEAN_MOTION":13.12442294,"ECCENTRICITY":0.0001676,"INCLINATION":87.8994,"RA_OF_ASC_NODE":10.3942,"ARG_OF_PERICENTER":79.7481,"MEAN_ANOMALY":280.3836,"EPHEMERIS_TYPE":0,"CLASSIFICATION_TYPE":"U","NORAD_CAT_ID":47270,"ELEMENT_SET_NO":999,"REV_AT_EPOCH":25154,"BSTAR":-0.0010176,"MEAN_MOTION_DOT":-3.53e-6,"MEAN_MOTION_DDOT":0},{"OBJECT_NAME":"ONEWEB-0125","OBJECT_ID":"2020-100P","EPOCH":"2026-03-09T20:06:08.322912","MEAN_MOTION":13.12443971,"ECCENTRICITY":0.0001515,"INCLINATION":87.9007,"RA_OF_ASC_NODE":10.3699,"ARG_OF_PERICENTER":73.2472,"MEAN_ANOMALY":286.8823,"EPHEMERIS_TYPE":0,"CLASSIFICATION_TYPE":"U","NORAD_CAT_ID":47271,"ELEMENT_SET_NO":999,"REV_AT_EPOCH":25160,"BSTAR":0.0005923,"MEAN_MOTION_DOT":2.26e-6,"MEAN_MOTION_DDOT":0},{"OBJECT_NAME":"ONEWEB-0126","OBJECT_ID":"2020-100Q","EPOCH":"2026-03-09T20:35:36.545568","MEAN_MOTION":13.12442285,"ECCENTRICITY":0.0001946,"INCLINATION":87.8998,"RA_OF_ASC_NODE":10.3889,"ARG_OF_PERICENTER":78.1239,"MEAN_ANOMALY":282.0108,"EPHEMERIS_TYPE":0,"CLASSIFICATION_TYPE":"U","NORAD_CAT_ID":47272,"ELEMENT_SET_NO":999,"REV_AT_EPOCH":25167,"BSTAR":-0.00095462,"MEAN_MOTION_DOT":-3.31e-6,"MEAN_MOTION_DDOT":0},{"OBJECT_NAME":"ONEWEB-0127","OBJECT_ID":"2020-100R","EPOCH":"2026-03-09T19:46:38.312256","MEAN_MOTION":13.12441957,"ECCENTRICITY":0.0001949,"INCLINATION":87.8994,"RA_OF_ASC_NODE":10.3989,"ARG_OF_PERICENTER":79.8663,"MEAN_ANOMALY":280.2685,"EPHEMERIS_TYPE":0,"CLASSIFICATION_TYPE":"U","NORAD_CAT_ID":47273,"ELEMENT_SET_NO":999,"REV_AT_EPOCH":25169,"BSTAR":0.0012642,"MEAN_MOTION_DOT":4.68e-6,"MEAN_MOTION_DDOT":0},{"OBJECT_NAME":"ONEWEB-0128","OBJECT_ID":"2020-100S","EPOCH":"2026-03-09T18:28:33.745728","MEAN_MOTION":13.12442187,"ECCENTRICITY":0.0001766,"INCLINATION":87.8993,"RA_OF_ASC_NODE":10.4238,"ARG_OF_PERICENTER":91.0197,"MEAN_ANOMALY":269.1134,"EPHEMERIS_TYPE":0,"CLASSIFICATION_TYPE":"U","NORAD_CAT_ID":47274,"ELEMENT_SET_NO":999,"REV_AT_EPOCH":25170,"BSTAR":-0.00040031,"MEAN_MOTION_DOT":-1.31e-6,"MEAN_MOTION_DDOT":0},{"OBJECT_NAME":"ONEWEB-0129","OBJECT_ID":"2020-100T","EPOCH":"2026-03-09T19:49:05.035008","MEAN_MOTION":13.12442146,"ECCENTRICITY":0.0002944,"INCLINATION":87.9002,"RA_OF_ASC_NODE":10.3765,"ARG_OF_PERICENTER":75.1093,"MEAN_ANOMALY":285.0361,"EPHEMERIS_TYPE":0,"CLASSIFICATION_TYPE":"U","NORAD_CAT_ID":47275,"ELEMENT_SET_NO":999,"REV_AT_EPOCH":25164,"BSTAR":0.001185,"MEAN_MOTION_DOT":4.39e-6,"MEAN_MOTION_DDOT":0},{"OBJECT_NAME":"ONEWEB-0130","OBJECT_ID":"2020-100U","EPOCH":"2026-03-09T20:28:05.846880","MEAN_MOTION":13.12442233,"ECCENTRICITY":0.0001904,"INCLINATION":87.9005,"RA_OF_ASC_NODE":10.3649,"ARG_OF_PERICENTER":81.3094,"MEAN_ANOMALY":278.825,"EPHEMERIS_TYPE":0,"CLASSIFICATION_TYPE":"U","NORAD_CAT_ID":47276,"ELEMENT_SET_NO":999,"REV_AT_EPOCH":25161,"BSTAR":-0.00088924,"MEAN_MOTION_DOT":-3.07e-6,"MEAN_MOTION_DDOT":0},{"OBJECT_NAME":"ONEWEB-0131","OBJECT_ID":"2020-100V","EPOCH":"2026-03-09T18:33:25.903872","MEAN_MOTION":13.12441733,"ECCENTRICITY":0.0001839,"INCLINATION":87.8993,"RA_OF_ASC_NODE":10.4099,"ARG_OF_PERICENTER":80.5368,"MEAN_ANOMALY":279.5968,"EPHEMERIS_TYPE":0,"CLASSIFICATION_TYPE":"U","NORAD_CAT_ID":47277,"ELEMENT_SET_NO":999,"REV_AT_EPOCH":25164,"BSTAR":-0.00061888,"MEAN_MOTION_DOT":-2.1e-6,"MEAN_MOTION_DDOT":0},{"OBJECT_NAME":"ONEWEB-0132","OBJECT_ID":"2020-100W","EPOCH":"2026-03-09T21:04:41.543040","MEAN_MOTION":13.12443172,"ECCENTRICITY":0.0001783,"INCLINATION":87.8995,"RA_OF_ASC_NODE":10.3881,"ARG_OF_PERICENTER":81.9469,"MEAN_ANOMALY":278.1862,"EPHEMERIS_TYPE":0,"CLASSIFICATION_TYPE":"U","NORAD_CAT_ID":47278,"ELEMENT_SET_NO":999,"REV_AT_EPOCH":25155,"BSTAR":-2.7697e-6,"MEAN_MOTION_DOT":1.2e-7,"MEAN_MOTION_DDOT":0},{"OBJECT_NAME":"ONEWEB-0133","OBJECT_ID":"2020-100X","EPOCH":"2026-03-09T19:39:07.061472","MEAN_MOTION":13.12442794,"ECCENTRICITY":0.0001764,"INCLINATION":87.9008,"RA_OF_ASC_NODE":10.3646,"ARG_OF_PERICENTER":85.1454,"MEAN_ANOMALY":274.9876,"EPHEMERIS_TYPE":0,"CLASSIFICATION_TYPE":"U","NORAD_CAT_ID":47279,"ELEMENT_SET_NO":999,"REV_AT_EPOCH":25170,"BSTAR":0.0011837,"MEAN_MOTION_DOT":4.39e-6,"MEAN_MOTION_DDOT":0},{"OBJECT_NAME":"ONEWEB-0134","OBJECT_ID":"2020-100Y","EPOCH":"2026-03-09T20:45:10.455840","MEAN_MOTION":13.12443425,"ECCENTRICITY":0.0002,"INCLINATION":87.9009,"RA_OF_ASC_NODE":10.3526,"ARG_OF_PERICENTER":85.5644,"MEAN_ANOMALY":274.5713,"EPHEMERIS_TYPE":0,"CLASSIFICATION_TYPE":"U","NORAD_CAT_ID":47280,"ELEMENT_SET_NO":999,"REV_AT_EPOCH":25168,"BSTAR":-0.0010293,"MEAN_MOTION_DOT":-3.58e-6,"MEAN_MOTION_DDOT":0},{"OBJECT_NAME":"ONEWEB-0135","OBJECT_ID":"2020-100Z","EPOCH":"2026-03-09T20:03:41.709024","MEAN_MOTION":13.12441213,"ECCENTRICITY":0.0001945,"INCLINATION":87.8995,"RA_OF_ASC_NODE":10.3942,"ARG_OF_PERICENTER":89.4398,"MEAN_ANOMALY":270.6953,"EPHEMERIS_TYPE":0,"CLASSIFICATION_TYPE":"U","NORAD_CAT_ID":47281,"ELEMENT_SET_NO":999,"REV_AT_EPOCH":25170,"BSTAR":0.00061277,"MEAN_MOTION_DOT":2.33e-6,"MEAN_MOTION_DDOT":0}]
